[{"OBJECT_NAME":"STARLINK-2622","OBJECT_ID":"2021-038H","EPOCH":"2026-03-09T22:47:25.613664","MEAN_MOTION":15.3018784,"ECCENTRICITY":0.00014174,"INCLINATION":53.1617,"RA_OF_ASC_NODE":356.9441,"ARG_OF_PERICENTER":103.4919,"MEAN_ANOMALY":256.624,"EPHEMERIS_TYPE":0,"CLASSIFICATION_TYPE":"U","NORAD_CAT_ID":48360,"ELEMENT_SET_NO":999,"REV_AT_EPOCH":26711,"BSTAR":-2.1226596e-5,"MEAN_MOTION_DOT":-9.88e-6,"MEAN_MOTION_DDOT":0},{"OBJECT_NAME":"ARC-1","OBJECT_ID":"2015-058F","EPOCH":"2026-03-09T11:16:24.767040","MEAN_MOTION":15.39473048,"ECCENTRICITY":0.00404032,"INCLINATION":64.7636,"RA_OF_ASC_NODE":93.5186,"ARG_OF_PERICENTER":65.9865,"MEAN_ANOMALY":294.5492,"EPHEMERIS_TYPE":0,"CLASSIFICATION_TYPE":"U","NORAD_CAT_ID":40969,"ELEMENT_SET_NO":999,"REV_AT_EPOCH":10163,"BSTAR":0.0010773685,"MEAN_MOTION_DOT":0.00043725,"MEAN_MOTION_DDOT":0}]
